{"type":"FeatureCollection","_source":"IBGE Malhas 2023 (9 municípios da RMBS), qualidade intermediária, SIRGAS 2000","features":[{"type":"Feature","properties":{"nome":"Bertioga","geocodigo":"3506359"},"geometry":{"type":"Polygon","coordinates":[[[-46.1332,-23.8565],[-46.1284,-23.8441],[-46.1182,-23.8366],[-46.0887,-23.8221],[-46.0662,-23.8146],[-46.0575,-23.8143],[-46.0388,-23.8256],[-46.0388,-23.8155],[-46.0235,-23.8051],[-46.0081,-23.8003],[-45.9985,-23.8035],[-45.992,-23.7941],[-45.9726,-23.7854],[-45.9412,-23.7757],[-45.8983,-23.7654],[-45.8611,-23.7598],[-45.8424,-23.7582],[-45.8073,-23.7248],[-45.7948,-23.7156],[-45.7996,-23.6932],[-45.7961,-23.683],[-45.7982,-23.6754],[-45.8233,-23.6762],[-45.8329,-23.6698],[-45.831,-23.6626],[-45.8334,-23.6487],[-45.8448,-23.6438],[-45.8547,-23.6467],[-45.862,-23.6523],[-45.8721,-23.6548],[-45.8836,-23.6535],[-45.8946,-23.6553],[-45.9161,-23.6669],[-45.9198,-23.6884],[-45.9361,-23.7012],[-45.9505,-23.7023],[-45.9765,-23.694],[-45.9854,-23.6982],[-45.992,-23.7055],[-46.0082,-23.7086],[-46.0167,-23.7148],[-46.0261,-23.7158],[-46.0337,-23.7208],[-46.0541,-23.7163],[-46.0661,-23.7236],[-46.0677,-23.729],[-46.0774,-23.7326],[-46.0956,-23.7338],[-46.1009,-23.7184],[-46.1066,-23.7117],[-46.1137,-23.7177],[-46.1254,-23.7132],[-46.1315,-23.7246],[-46.148,-23.7284],[-46.1557,-23.7362],[-46.1602,-23.7319],[-46.1705,-23.7324],[-46.1864,-23.7447],[-46.1949,-23.7542],[-46.2024,-23.7513],[-46.2062,-23.7572],[-46.2155,-23.7574],[-46.2208,-23.7728],[-46.2342,-23.7716],[-46.241,-23.7739],[-46.2342,-23.7869],[-46.2364,-23.7996],[-46.2244,-23.8097],[-46.2098,-23.8132],[-46.2121,-23.8241],[-46.2228,-23.8331],[-46.2355,-23.836],[-46.2368,-23.8501],[-46.2336,-23.8603],[-46.2166,-23.8593],[-46.2122,-23.8623],[-46.1995,-23.8801],[-46.1824,-23.8818],[-46.1778,-23.8889],[-46.1731,-23.8872],[-46.158,-23.8703],[-46.1522,-23.8608],[-46.1332,-23.8565]]]}},{"type":"Feature","properties":{"nome":"Cubatão","geocodigo":"3513504"},"geometry":{"type":"Polygon","coordinates":[[[-46.4103,-23.8154],[-46.4263,-23.8251],[-46.4369,-23.8254],[-46.4412,-23.8349],[-46.438,-23.8422],[-46.4435,-23.8502],[-46.455,-23.8546],[-46.4599,-23.8661],[-46.4884,-23.8854],[-46.4962,-23.8996],[-46.4933,-23.9056],[-46.4795,-23.9174],[-46.4717,-23.9185],[-46.4632,-23.9153],[-46.4549,-23.9072],[-46.4503,-23.9193],[-46.4541,-23.9329],[-46.4452,-23.9415],[-46.4394,-23.9378],[-46.4224,-23.9348],[-46.4067,-23.9342],[-46.3954,-23.9361],[-46.3863,-23.933],[-46.403,-23.9218],[-46.3701,-23.9139],[-46.376,-23.9031],[-46.3773,-23.8934],[-46.3749,-23.8852],[-46.3749,-23.8683],[-46.3694,-23.8638],[-46.3654,-23.8517],[-46.351,-23.8418],[-46.3437,-23.8252],[-46.3276,-23.8053],[-46.3203,-23.8031],[-46.3202,-23.7855],[-46.3318,-23.7813],[-46.3386,-23.7817],[-46.3544,-23.7915],[-46.3677,-23.7925],[-46.3733,-23.7955],[-46.3836,-23.8097],[-46.4024,-23.8118],[-46.4103,-23.8154]]]}},{"type":"Feature","properties":{"nome":"Guarujá","geocodigo":"3518701"},"geometry":{"type":"Polygon","coordinates":[[[-46.3063,-23.9931],[-46.3133,-23.9983],[-46.3194,-23.9973],[-46.3235,-24.0095],[-46.3201,-24.0243],[-46.295,-24.016],[-46.2861,-24.0242],[-46.2847,-24.0324],[-46.2898,-24.0406],[-46.2826,-24.043],[-46.2781,-24.0364],[-46.2799,-24.0223],[-46.2693,-24.0132],[-46.2652,-24.0041],[-46.2397,-23.9908],[-46.2144,-23.9861],[-46.1978,-23.9948],[-46.1861,-23.9873],[-46.1868,-23.9725],[-46.1819,-23.9612],[-46.1726,-23.9579],[-46.1656,-23.9442],[-46.1801,-23.9359],[-46.1789,-23.9242],[-46.1678,-23.9117],[-46.156,-23.9075],[-46.1486,-23.8941],[-46.14,-23.8918],[-46.1409,-23.8808],[-46.1332,-23.8565],[-46.1522,-23.8608],[-46.158,-23.8703],[-46.1731,-23.8872],[-46.1865,-23.8916],[-46.1927,-23.8987],[-46.195,-23.9072],[-46.2119,-23.9159],[-46.2256,-23.9098],[-46.2331,-23.9141],[-46.2376,-23.922],[-46.246,-23.925],[-46.2486,-23.9195],[-46.2577,-23.9207],[-46.2787,-23.9167],[-46.2893,-23.923],[-46.2968,-23.9164],[-46.3091,-23.9221],[-46.3117,-23.9279],[-46.3097,-23.9451],[-46.3068,-23.9531],[-46.2926,-23.9697],[-46.2896,-23.9841],[-46.2975,-23.9922],[-46.3063,-23.9931]]]}},{"type":"Feature","properties":{"nome":"Itanhaém","geocodigo":"3522109"},"geometry":{"type":"Polygon","coordinates":[[[-46.8976,-24.2529],[-46.8446,-24.2184],[-46.8153,-24.2015],[-46.8048,-24.2004],[-46.7939,-24.1939],[-46.7888,-24.1872],[-46.749,-24.1664],[-46.7094,-24.1441],[-46.725,-24.1324],[-46.7273,-24.1182],[-46.7328,-24.1085],[-46.7304,-24.1022],[-46.7341,-24.0946],[-46.7323,-24.0882],[-46.7442,-24.0804],[-46.7429,-24.0643],[-46.7242,-24.0495],[-46.6995,-24.044],[-46.6968,-24.0352],[-46.6893,-24.0299],[-46.6697,-24.0225],[-46.6425,-24.0102],[-46.6618,-23.9882],[-46.6754,-23.9894],[-46.6833,-23.9824],[-46.6921,-23.9844],[-46.6993,-23.9903],[-46.7081,-23.991],[-46.7148,-23.9962],[-46.721,-23.993],[-46.7303,-23.9955],[-46.7427,-23.9919],[-46.755,-23.9968],[-46.7627,-24.006],[-46.772,-24.0077],[-46.7664,-23.9917],[-46.7549,-23.9754],[-46.7751,-23.9564],[-46.7856,-23.9423],[-46.7945,-23.9426],[-46.8069,-23.9382],[-46.8299,-23.9473],[-46.8238,-23.9562],[-46.8348,-23.9563],[-46.8452,-23.9627],[-46.8553,-23.9735],[-46.8623,-23.9742],[-46.8676,-23.9801],[-46.8751,-23.9793],[-46.8831,-23.9852],[-46.8814,-23.9934],[-46.871,-23.9986],[-46.8677,-24.0192],[-46.8719,-24.0239],[-46.8826,-24.0233],[-46.8903,-24.0312],[-46.894,-24.0417],[-46.9003,-24.0461],[-46.9206,-24.0415],[-46.9303,-24.0445],[-46.9362,-24.0334],[-46.9458,-24.0406],[-46.9608,-24.0459],[-46.9678,-24.0447],[-46.9647,-24.0584],[-46.9786,-24.0643],[-46.9832,-24.0741],[-46.9787,-24.0864],[-46.9696,-24.092],[-46.9684,-24.1077],[-46.9779,-24.122],[-46.9832,-24.1233],[-46.9817,-24.1301],[-46.9741,-24.138],[-46.9692,-24.1364],[-46.9468,-24.1413],[-46.9411,-24.1545],[-46.9431,-24.1738],[-46.9522,-24.1864],[-46.9513,-24.1926],[-46.9386,-24.2023],[-46.9313,-24.2181],[-46.9256,-24.2223],[-46.9266,-24.2315],[-46.8976,-24.2529]]]}},{"type":"Feature","properties":{"nome":"Mongaguá","geocodigo":"3531100"},"geometry":{"type":"Polygon","coordinates":[[[-46.7094,-24.1441],[-46.6507,-24.1125],[-46.6044,-24.0897],[-46.6118,-24.0812],[-46.6016,-24.0653],[-46.6026,-24.0492],[-46.5986,-24.0446],[-46.6089,-24.0378],[-46.605,-24.0239],[-46.5892,-24.0098],[-46.5931,-23.9975],[-46.6024,-23.9961],[-46.6153,-24.0021],[-46.6204,-24.008],[-46.6425,-24.0102],[-46.6697,-24.0225],[-46.6893,-24.0299],[-46.6968,-24.0352],[-46.6995,-24.044],[-46.7242,-24.0495],[-46.7429,-24.0643],[-46.7442,-24.0804],[-46.7323,-24.0882],[-46.7341,-24.0946],[-46.7304,-24.1022],[-46.7328,-24.1085],[-46.7273,-24.1182],[-46.725,-24.1324],[-46.7094,-24.1441]]]}},{"type":"Feature","properties":{"nome":"Peruíbe","geocodigo":"3537602"},"geometry":{"type":"Polygon","coordinates":[[[-46.8976,-24.2529],[-46.9266,-24.2315],[-46.9256,-24.2223],[-46.9313,-24.2181],[-46.9386,-24.2023],[-46.9513,-24.1926],[-46.9522,-24.1864],[-46.9431,-24.1738],[-46.9411,-24.1545],[-46.9468,-24.1413],[-46.9692,-24.1364],[-46.9741,-24.138],[-46.9817,-24.1301],[-46.9832,-24.1233],[-46.9916,-24.122],[-47.0102,-24.1317],[-47.014,-24.1417],[-47.0311,-24.1483],[-47.031,-24.1576],[-47.0405,-24.1699],[-47.0425,-24.1776],[-47.0646,-24.187],[-47.0674,-24.2015],[-47.0593,-24.2112],[-47.0394,-24.2221],[-47.0305,-24.2234],[-47.0313,-24.2317],[-47.0381,-24.2334],[-47.0461,-24.2447],[-47.0445,-24.2489],[-47.055,-24.2582],[-47.057,-24.2643],[-47.0488,-24.2767],[-47.0399,-24.2738],[-47.0279,-24.2781],[-47.0211,-24.2835],[-47.0346,-24.3215],[-47.045,-24.3344],[-47.0638,-24.3428],[-47.074,-24.3429],[-47.0863,-24.348],[-47.0904,-24.3524],[-47.1022,-24.3541],[-47.1077,-24.3508],[-47.1208,-24.3648],[-47.1142,-24.3718],[-47.1162,-24.379],[-47.111,-24.3881],[-47.1013,-24.3927],[-47.1119,-24.3991],[-47.1177,-24.4176],[-47.1083,-24.4295],[-47.0929,-24.4355],[-47.0813,-24.4341],[-47.0779,-24.4482],[-47.0533,-24.4331],[-47.0372,-24.4269],[-47.0288,-24.4271],[-47.0215,-24.4226],[-47.0153,-24.4125],[-47.0076,-24.4139],[-47.0036,-24.409],[-47.0109,-24.3881],[-47.0163,-24.3874],[-47.0182,-24.3788],[-47.002,-24.3613],[-46.9987,-24.3516],[-47.0025,-24.3374],[-46.9939,-24.3254],[-46.9718,-24.3051],[-46.9476,-24.2862],[-46.9205,-24.2674],[-46.8976,-24.2529]]]}},{"type":"Feature","properties":{"nome":"Praia Grande","geocodigo":"3541000"},"geometry":{"type":"Polygon","coordinates":[[[-46.3919,-23.9986],[-46.4008,-23.9846],[-46.4085,-23.988],[-46.4216,-23.9783],[-46.4316,-23.9775],[-46.4398,-23.985],[-46.446,-23.982],[-46.4633,-23.998],[-46.4756,-24.0052],[-46.4922,-24.0036],[-46.495,-23.9976],[-46.5093,-23.9878],[-46.5153,-23.9639],[-46.5219,-23.9585],[-46.5194,-23.9486],[-46.5268,-23.9464],[-46.5485,-23.9566],[-46.5576,-23.9661],[-46.5681,-23.9694],[-46.5784,-23.985],[-46.5841,-23.9857],[-46.5931,-23.9975],[-46.5892,-24.0098],[-46.605,-24.0239],[-46.6089,-24.0378],[-46.5986,-24.0446],[-46.6026,-24.0492],[-46.6016,-24.0653],[-46.6118,-24.0812],[-46.6044,-24.0897],[-46.5494,-24.0636],[-46.493,-24.0385],[-46.455,-24.0239],[-46.4351,-24.0186],[-46.4156,-24.0157],[-46.3994,-24.0192],[-46.3995,-24.0287],[-46.3902,-24.0237],[-46.3919,-23.9986]]]}},{"type":"Feature","properties":{"nome":"Santos","geocodigo":"3548500"},"geometry":{"type":"Polygon","coordinates":[[[-46.3551,-23.9711],[-46.3356,-23.9721],[-46.3204,-23.9769],[-46.3116,-23.9844],[-46.3063,-23.9931],[-46.2975,-23.9922],[-46.2896,-23.9841],[-46.2926,-23.9697],[-46.3068,-23.9531],[-46.3097,-23.9451],[-46.3117,-23.9279],[-46.3091,-23.9221],[-46.2968,-23.9164],[-46.2893,-23.923],[-46.2787,-23.9167],[-46.2577,-23.9207],[-46.2486,-23.9195],[-46.246,-23.925],[-46.2376,-23.922],[-46.2331,-23.9141],[-46.2256,-23.9098],[-46.2119,-23.9159],[-46.195,-23.9072],[-46.1927,-23.8987],[-46.1865,-23.8916],[-46.1778,-23.8889],[-46.1824,-23.8818],[-46.1995,-23.8801],[-46.2122,-23.8623],[-46.2166,-23.8593],[-46.2336,-23.8603],[-46.2368,-23.8501],[-46.2355,-23.836],[-46.2228,-23.8331],[-46.2121,-23.8241],[-46.2098,-23.8132],[-46.2244,-23.8097],[-46.2364,-23.7996],[-46.2342,-23.7869],[-46.241,-23.7739],[-46.2342,-23.7716],[-46.2208,-23.7728],[-46.2155,-23.7574],[-46.2062,-23.7572],[-46.2024,-23.7513],[-46.2086,-23.7434],[-46.2177,-23.7441],[-46.2261,-23.7375],[-46.2396,-23.7359],[-46.2478,-23.7462],[-46.2489,-23.7569],[-46.2554,-23.7598],[-46.2603,-23.7679],[-46.2701,-23.7658],[-46.2784,-23.7703],[-46.2938,-23.7837],[-46.3026,-23.7879],[-46.3203,-23.8031],[-46.3276,-23.8053],[-46.3437,-23.8252],[-46.351,-23.8418],[-46.3654,-23.8517],[-46.3694,-23.8638],[-46.3749,-23.8683],[-46.3749,-23.8852],[-46.3773,-23.8934],[-46.376,-23.9031],[-46.3701,-23.9139],[-46.403,-23.9218],[-46.3863,-23.933],[-46.3912,-23.94],[-46.3829,-23.9496],[-46.3624,-23.9526],[-46.3551,-23.9711]]]}},{"type":"Feature","properties":{"nome":"São Vicente","geocodigo":"3551009"},"geometry":{"type":"Polygon","coordinates":[[[-46.3919,-23.9986],[-46.3791,-23.9938],[-46.3785,-23.9846],[-46.3838,-23.9718],[-46.375,-23.97],[-46.366,-23.9729],[-46.3551,-23.9711],[-46.3624,-23.9526],[-46.3829,-23.9496],[-46.3912,-23.94],[-46.3863,-23.933],[-46.3954,-23.9361],[-46.4067,-23.9342],[-46.4224,-23.9348],[-46.4394,-23.9378],[-46.4452,-23.9415],[-46.4541,-23.9329],[-46.4503,-23.9193],[-46.4549,-23.9072],[-46.4632,-23.9153],[-46.4717,-23.9185],[-46.4795,-23.9174],[-46.4933,-23.9056],[-46.4962,-23.8996],[-46.5031,-23.9045],[-46.5201,-23.9055],[-46.5209,-23.9118],[-46.5405,-23.9235],[-46.5566,-23.9417],[-46.5645,-23.9529],[-46.5802,-23.9558],[-46.5853,-23.9608],[-46.6119,-23.9678],[-46.618,-23.9678],[-46.6357,-23.9773],[-46.6331,-23.988],[-46.6404,-23.9978],[-46.6499,-24.0016],[-46.6425,-24.0102],[-46.6204,-24.008],[-46.6153,-24.0021],[-46.6024,-23.9961],[-46.5931,-23.9975],[-46.5841,-23.9857],[-46.5784,-23.985],[-46.5681,-23.9694],[-46.5576,-23.9661],[-46.5485,-23.9566],[-46.5268,-23.9464],[-46.5194,-23.9486],[-46.5219,-23.9585],[-46.5153,-23.9639],[-46.5093,-23.9878],[-46.495,-23.9976],[-46.4922,-24.0036],[-46.4756,-24.0052],[-46.4633,-23.998],[-46.446,-23.982],[-46.4398,-23.985],[-46.4316,-23.9775],[-46.4216,-23.9783],[-46.4085,-23.988],[-46.4008,-23.9846],[-46.3919,-23.9986]]]}}]}